HST                     
1 20580U 90037B   26068.15977042  .00009063  00000+0  30023-3 0  9999
2 20580  28.4717  43.6133 0001837 120.9992 239.0785 15.29473555773239
STARLINK-1169           
1 45061U 20006T   26068.85561674 -.00000755  00000+0 -13365-4 0  9998
2 45061  53.1610 280.2206 0001444  99.1509 260.9655 15.30189766336573
